GSLV R/B                
1 54149U 22138AN  26218.23945164  .00001455  00000+0  12202-3 0  9996
2 54149  87.3803 116.1744 0020082 334.3935  25.6300 14.97475157206307
GSLV R/B                
1 56760U 23076B   26217.48839055  .00013837  00000+0  73051-3 0  9992
2 56760  19.3209  14.7157 6447543 221.0826  66.2975  3.44008998 33139
GSLV R/B                
1 58991U 24033B   26218.29101691  .00160731 -49264-6  18717-2 0  9998
2 58991  19.3121 108.4932 6017783  54.7792 347.7083  4.11812014 27445
GSLV R/B                
1 62851U 25020B   26217.62712615  .00083834  11802-6  79915-3 0  9997
2 62851  20.5199 213.1136 7036332 231.9612  41.2834  2.65492255 13203
GSLV R/B                
1 65054U 25163B   26218.11279097  .00000155  00000+0  53873-4 0  9992
2 65054  98.4341  49.0149 0010724 257.2103 102.7891 14.47868107 53767
