PSLV R/B                
1 23828U 96017B   26218.05177144  .00000016  00000+0  27881-4 0  9990
2 23828  99.0460 236.2739 0032951 209.8070 150.1230 14.22692766576174
PSLV R/B                
1 25759U 99029D   26218.09483365  .00000121  00000+0  38763-4 0  9998
2 25759  98.6112 255.2644 0027842  96.9345 263.5020 14.55856205442520
PSLV DEB                
1 27089U 01049AH  26218.01989716  .00001094  00000+0  92660-4 0  9990
2 27089  98.1139 242.5415 0048724 269.1898 151.0294 14.99449621336856
PSLV DEB                
1 27123U 01049BT  26218.11482466  .00000731  00000+0  12137-3 0  9997
2 27123  97.3733 170.5954 0036566 245.8448 113.8937 14.72372027313667
PSLV DEB                
1 27124U 01049BU  26218.17302522  .00001002  00000+0  10042-3 0  9993
2 27124  98.0478 286.0138 0026992 239.8344 174.9982 14.93507636327199
PSLV DEB                
1 27130U 01049CA  26218.14309226  .00000751  00000+0  93793-4 0  9990
2 27130  98.1268 275.5866 0012908 295.2776 119.4872 14.85412104325817
PSLV DEB                
1 27133U 01049CD  26217.78180133  .00000656  00000+0  11606-3 0  9992
2 27133  97.7532 148.4816 0042583  76.2853 284.3089 14.69840703313616
PSLV DEB                
1 27136U 01049CG  26218.18774413  .00004487  00000+0  25791-3 0  9996
2 27136  97.8945 301.4009 0026969 153.7147 268.4940 15.12735101352470
PSLV DEB                
1 27141U 01049CM  26218.13774400  .00000965  00000+0  10212-3 0  9992
2 27141  98.0732 272.2507 0047112  70.9935 344.2425 14.90858576329437
PSLV DEB                
1 27142U 01049CN  26218.05882862  .00000140  00000+0  63763-4 0  9991
2 27142  97.3578 251.1541 0276470  43.4183 318.8411 14.13797100266031
PSLV DEB                
1 27146U 01049CS  26218.20526150  .00002327  00000+0  20372-3 0  9994
2 27146  98.0422 300.6873 0036626 115.5659 298.8316 14.97245434323984
PSLV DEB                
1 27152U 01049CY  26218.22925609  .00004872  00000+0  29659-3 0  9999
2 27152  97.9851 311.9425 0019196 186.2012 173.8982 15.10767253328535
PSLV DEB                
1 27153U 01049CZ  26217.83794038  .00109795  00000+0  77929-3 0  9999
2 27153  97.8167 331.1229 0008473 249.6111 110.4242 15.73542042339300
PSLV DEB                
1 27160U 01049DG  26218.07236654  .00000223  00000+0  44837-4 0  9998
2 27160  98.3567 256.2763 0047062  93.8730 332.7179 14.70697533318386
PSLV DEB                
1 27305U 01049KB  26218.15274019  .00000779  00000+0  10896-3 0  9998
2 27305  98.2056 280.4354 0036938 331.5851  83.3093 14.80140018320839
PSLV DEB                
1 27580U 01049MY  26216.38178734  .00000561  00000+0  84023-4 0  9996
2 27580  98.2541 256.1735 0043204 173.9206 186.2537 14.78195496287994
PSLV DEB                
1 27582U 01049NA  26216.65941844  .00008458  00000+0  50399-3 0  9999
2 27582  98.3011 292.8834 0024660 211.5095 148.4657 15.11221154300231
PSLV DEB                
1 27585U 01049ND  26217.55461421  .00001466  00000+0  16656-3 0  9990
2 27585  98.2859 252.4985 0051302 128.0143 232.5720 14.87041093309353
PSLV DEB                
1 27653U 01049NQ  26217.61745332  .00001220  00000+0  12955-3 0  9995
2 27653  98.0815 279.9377 0049940 328.9464  30.8803 14.90136539296664
PSLV DEB                
1 27655U 01049NS  26217.17054791  .00003816  00000+0  54081-3 0  9999
2 27655  97.2746 113.2022 0108084 164.0980 196.3669 14.73548213268804
PSLV R/B                
1 28050U 03046B   26217.93709282  .00000033  00000+0  38231-4 0  9992
2 28050  99.0698 197.9777 0051440 129.1621 250.0201 14.17606301179142
PSLV R/B                
1 28651U 05017C   26218.20135119  .00000451  00000+0  65383-4 0  9994
2 28651  97.8608 120.5773 0067472 142.0313 218.5684 14.79273618142444
PSLV DEB                
1 28852U 01049PE  26215.41002821  .00000517  00000+0  79031-4 0  9999
2 28852  98.2486 258.9091 0041170 181.5377 192.4470 14.77686188705738
PSLV DEB                
1 28853U 01049PF  26214.41963293  .00004819  00000+0  34444-3 0  9995
2 28853  97.9945 282.3411 0027464  95.8151 264.6206 15.04676392712542
PSLV R/B                
1 29713U 07001E   26218.18540362  .00002051  00000+0  17576-3 0  9994
2 29713  98.0183 251.8698 0017331 300.6959  59.2554 14.98630338 60404
RUBIN-8 & PSLV R/B      
1 32792U 08021K   26218.02256075  .00000551  00000+0  68772-4 0  9994
2 32792  98.1472 221.0109 0024466 168.3994 191.7789 14.86404904986503
PSLV R/B                
1 33406U 08052B   26217.59950716  .00013705  00000+0  13934-2 0  9998
2 33406  17.8511   6.5560 5824259 124.6410 304.6786  4.33989751253234
PSLV DEB                
1 34221U 01049PR  26214.30932534  .00002377  00000+0  13485-3 0  9992
2 34221  98.5014 163.6001 0039576 345.9380  14.0743 15.13528516321350
PSLV DEB                
1 35339U 01049PX  26217.31638958  .00002003  00000+0  40134-3 0  9997
2 35339  98.3890 348.6472 0134875 342.9675  16.7018 14.57329101245726
PSLV DEB                
1 35342U 01049QA  26216.07359233  .00000800  00000+0  36286-3 0  9995
2 35342  98.3064 142.6540 0339101 125.2755 238.0635 13.97822977667185
PSLV DEB                
1 35346U 01049QE  26211.88376573  .00023295  00000+0  16621-2 0  9992
2 35346  98.8449  87.1738 0014860 272.6054  87.3467 15.04465717266429
PSLV DEB                
1 35350U 01049QJ  26212.88116822  .00001114  00000+0  25759-3 0  9996
2 35350  98.5067 264.0123 0063463 249.9942 109.4414 14.56051648690460
PSLV DEB                
1 35351U 01049QK  26217.17017692  .00003354  00000+0  61303-3 0  9992
2 35351  98.7941 292.2805 0004145 177.0913 183.0314 14.66650356691768
PSLV DEB                
1 35536U 01049QL  26215.99051148  .00000745  00000+0  41833-3 0  9996
2 35536  98.6403 267.7213 0406302 222.4235 134.4844 13.78663192153493
PSLV R/B                
1 36800U 10035F   26218.29078417  .00003327  00000+0  19200-3 0  9992
2 36800  97.9820 151.4003 0013938  60.5252 299.7366 15.13036086876659
PSLV R/B                
1 37390U 11015D   26218.10552201  .00000061  00000+0  41570-4 0  9992
2 37390  98.5114 166.7869 0019034 125.7458 245.4411 14.28349776796952
PSLV R/B                
1 37747U 11034B   26217.17518367  .00007192  00000+0  91690-3 0  9999
2 37747  17.9198 224.6771 5801267 244.0197  46.3747  4.36302857224816
PSLV R/B                
1 37842U 11058E   26217.39846791  .00000345  00000+0  30016-4 0  9999
2 37842  19.7925 231.2919 0059295 196.7789 163.0648 14.21852285770564
PSLV R/B                
1 38757U 12047C   26218.13045820  .00000416  00000+0  57707-4 0  9996
2 38757  98.3044  64.6661 0005052 185.4431 174.6728 14.83408636750287
PSLV DEB                
1 38842U 05017F   26216.95842612  .00023583  00000+0  70286-3 0  9998
2 38842  98.0863 299.7384 0020256 190.0289 170.0551 15.34479340861775
PSLV R/B                
1 39093U 13009H   26218.13440838  .00000140  00000+0  48027-4 0  9996
2 39093  98.0502  58.4841 0042534 243.8568 115.8248 14.48752205709928
PSLV DEB                
1 39094U 13009J   26218.25791673  .00000764  00000+0  23317-3 0  9992
2 39094  98.3272  46.4454 0009374  19.3555 340.7991 14.44585468705347
PSLV R/B                
1 39200U 13034B   26216.94919412  .00008288  00000+0  11900-2 0  9999
2 39200  17.8355  60.0570 5727317 111.4244 316.9208  4.47040941199586
PSLV R/B                
1 39371U 13060B   26218.22895522  .00005797  00000+0  67482-3 0  9994
2 39371  19.2009  80.6310 6080209 161.8170 236.3569  3.94776023170613
PSLV R/B                
1 39636U 14017B   26217.31176382  .00002465  00000+0  48030-3 0  9993
2 39636  19.0145 170.6345 5723043 197.8982 128.3172  4.45671466186230
PSLV R/B                
1 40058U 14034F   26218.21093833  .00000450  00000+0  60439-4 0  9991
2 40058  98.2803  81.8147 0020319 169.2298 190.9355 14.84376930653494
PSLV R/B                
1 40270U 14061B   26217.44465761  .00010379  00000+0  85118-3 0  9995
2 40270  17.7285 244.9435 5743456  68.1481 341.8776  4.47404622179183
PSLV R/B                
1 40548U 15018B   26218.18680876  .00012003  00000+0  98937-3 0  9993
2 40548  19.0102 112.4406 5718999 354.1476   1.3518  4.51210400170870
PSLV R/B                
1 40720U 15032F   26217.90062610  .00000691  00000+0  84185-4 0  9991
2 40720  98.1968 189.6013 0003183 301.1530  58.9373 14.86754616598681
PSLV R/B                
1 41242U 16003B   26217.79093603  .00000637  00000+0  28235-3 0  9996
2 41242  19.1108  31.5023 5974423 218.5744  78.2292  4.04434379152741
PSLV R/B                
1 41385U 16015B   26217.66858689  .00007300  00000+0  61826-3 0  9993
2 41385  17.7167 266.6080 5638898  85.0779 333.6506  4.63506564159339
PSLV R/B                
1 41470U 16027B   26217.99103457  .00006170  00000+0  11269-2 0  9992
2 41470  17.7846 124.9484 5877264  36.5529 351.8817  4.22888787151725
PSLV R/B                
1 41791U 16059J   26218.03308156  .00000252  00000+0  56497-4 0  9991
2 41791  97.8355 226.7789 0041810 126.4186 234.0884 14.63700797525964
PSLV DEB                
1 41792U 16059K   26218.33121093  .00001932  00000+0  26089-3 0  9997
2 41792  97.7761 238.1092 0020181 352.7228   7.3689 14.80073798528294
PSLV R/B                
1 41878U 16074B   26218.23604929  .00000025  00000+0  29686-4 0  9991
2 41878  98.6291 305.7506 0003612  70.0836 290.0732 14.24173362502099
PSLV R/B                
1 43287U 18035B   26217.55133417  .00018413  00000+0  76204-3 0  9996
2 43287  19.1622  25.5507 5599028 295.9423  17.5456  4.73148898128587
PSLV R/B                
1 43620U 18071C   26218.19999965  .00000607  00000+0  52449-4 0  9998
2 43620  97.4497  32.6124 0015385 328.5377  31.4925 15.00619169429920
PSLV R/B                
1 44805U 19081B   26218.06668534  .00018094  00000+0  23444-3 0  9998
2 44805  97.1713 258.4640 0014315 270.6501  89.3115 15.58808583372083
PSLV R/B                
1 44862U 19089L   26217.95711796  .00019040  00000+0  27508-3 0  9992
2 44862  36.9667  99.8549 0013984 213.5331 146.4544 15.55044093369473
PSLV R/B                
1 46915U 20081L   26217.56215742  .00007504  00000+0  18966-3 0  9994
2 46915  36.8459 287.4922 0021189 346.0963  13.9204 15.39139001318696
PSLV R/B                
1 47257U 20099B   26218.06101523  .00111471 -55375-6  11714-2 0  9995
2 47257  17.7970 138.7189 5393483   8.2030 357.9072  5.11532912 89181
PSLV R/B                
1 51659U 22013D   26218.17329242  .00079965  00000+0  34630-3 0  9997
2 51659  97.4279 281.1593 0005953 252.2948 107.7673 15.84650194250594
PSLV R/B                
1 57755U 23132B   26217.93508080  .00020627  00000+0  10138-2 0  9992
2 57755  19.1365 121.7223 5583886 340.4492   4.6990  4.74804373 47338
PSLV R/B                
1 62257U 24233B   26201.57952653 -.00000463  00000+0  00000+0 0  9991
2 62257  59.8344  95.7131 8014738 205.9751  67.5203  1.20454822  7135
