APPLE                   
1 12545U 81057B   26217.97475399 -.00000039  00000+0  00000+0 0  9990
2 12545   6.9214 296.4478 0027168 226.8315 314.3704  1.00057365122882
===
===
INSAT-1B                
1 14318U 83089B   26217.95145022  .00000137  00000+0  00000+0 0  9990
2 14318  11.1009 326.7109 0011672 236.2852 138.6774  1.00185514125711
INSAT-1B R/B [PAM-D]    
1 14524U 83089C   26217.97081194  .00004681  00000+0  11670-2 0  9996
2 14524  24.4263 221.0824 5878571 298.1305  15.1053  4.20744703497351
===
IRS-1A                  
1 18960U 88021A   26218.18965904 -.00000205  00000+0 -11636-3 0  9992
2 18960  98.8473 271.0268 0015162  72.5682 357.6849 13.97177941860157
===
INSAT-1C                
1 19330U 88063A   26216.94210810  .00000002  00000+0  00000+0 0  9993
2 19330  11.2596 327.4663 0008895 159.1312 232.0324  1.00233980120831
===
INSAT-1D                
1 20643U 90051A   26217.93711162 -.00000158  00000+0  00000+0 0  9991
2 20643  14.6023 353.5700 0017149 195.3226 183.5325  1.00264082119254
===
IRS-1B                  
1 21688U 91061A   26218.00597381 -.00000231  00000+0 -12984-3 0  9998
2 21688  99.4125 227.1978 0023867 226.4506 188.4445 13.97879773675456
===
INSAT-2DT (ARABSAT-1C)  
1 21894U 92010B   26218.22070378 -.00000224  00000+0  00000+0 0  9991
2 21894  14.3909  11.2759 0027661 277.4416  69.2038  0.98685487124730
===
INSAT-2A                
1 22027U 92041A   26218.18773148 -.00000156  00000+0  00000+0 0  9998
2 22027  14.4804 351.4408 0009314 277.7503 271.2072  1.00236714124551
===
INSAT-2B                
1 22724U 93048B   26217.98759038  .00000074  00000+0  00000+0 0  9997
2 22724  14.4655   2.2106 0016276 221.7299 313.1899  0.99970133121075
===
IRS-P2                  
1 23323U 94068A   26218.13517098  .00000046  00000+0  39283-4 0  9991
2 23323  98.8904 269.3010 0001101  88.1121 272.0183 14.24679699652179
IRS-P2 R/B              
1 23324U 94068B   26218.20107620 -.00000013  00000+0  15185-4 0  9996
2 23324  98.8424 291.9723 0057904 130.1415 230.4852 14.17417662644629
===
===
INSAT-2C                
1 23731U 95067B   26217.28979201 -.00000278  00000+0  00000+0 0  9995
2 23731  14.3346   7.8805 0002822  46.0852 307.1514  0.99783844111899
===
IRS-1C                  
1 23751U 95072A   26218.05521176  .00000027  00000+0  32170-4 0  9992
2 23751  99.0212 238.3919 0001050  98.5311 261.5985 14.23579008588669
===
IRS-P3                  
1 23827U 96017A   26218.06282452  .00000053  00000+0  43616-4 0  9994
2 23827  99.0277 242.8719 0003903 142.0636 218.0817 14.23748065576968
===
INSAT-2DT (ARABSAT-1C)  
1 21894U 92010B   26218.22070378 -.00000224  00000+0  00000+0 0  9991
2 21894  14.3909  11.2759 0027661 277.4416  69.2038  0.98685487124730
INSAT-2D                
1 24820U 97027B   26218.25034392 -.00000177  00000+0  00000+0 0  9992
2 24820  12.6713 345.0764 0335613 130.7878  39.5818  1.04791957 50026
===
IRS-1D                  
1 24971U 97057A   26217.96669182  .00000078  00000+0  42335-4 0  9991
2 24971  98.8464 213.6359 0053232  81.7060 279.0156 14.35529752509759
===
INSAT-2E (APR-1)        
1 25666U 99016A   26217.99508184 -.00000075  00000+0  00000+0 0  9993
2 25666  11.4421  39.8633 0008529 298.9741 238.7715  0.99651354 51939
===
IRS-P4 (OCEANSAT-1)     
1 25758U 99029C   26218.16180148  .00000230  00000+0  62961-4 0  9996
2 25758  97.9737 188.8483 0003187  23.7698 336.3647 14.55310605441387
===
INSAT-3B                
1 26108U 00016B   26217.53366633 -.00000145  00000+0  00000+0 0  9996
2 26108  10.9565  45.0377 0005665 213.2850 342.5854  0.99654547 51921
===
===
INSAT-3C                
1 27298U 02002A   26217.60138757  .00000047  00000+0  00000+0 0  9996
2 27298   8.5651  62.9289 0013214 145.7196  38.3888  0.99296185 89582
===
KALPANA-1 (METSAT 1)    
1 27525U 02043A   26218.15991135 -.00000139  00000+0  00000+0 0  9995
2 27525  13.1393  31.8717 0006850 146.5407 211.0550  0.98338900 86970
===
INSAT-3A                
1 27714U 03013A   26218.21395508  .00000063  00000+0  00000+0 0  9997
2 27714   8.9448  60.4379 0006639 348.2097 221.3800  0.99798290 85228
===
GSAT-2                  
1 27807U 03018A   26218.20602515  .00000107  00000+0  00000+0 0  9992
2 27807  11.2702  41.2404 0011191 350.7283 215.8140  0.99847070 84934
GSAT-29                 
1 43698U 18089A   26218.16745140  .00000090  00000+0  00000+0 0  9990
2 43698   0.0197  96.4348 0002722  24.6482 308.9957  1.00274720 28286
SHERPA-FX2 & TAGSAT-2   
1 48958U 21059CH  26218.11251146  .00014015  00000+0  18737-3 0  9990
2 48958  97.6838  55.9672 0007088 143.7668 216.4068 15.58140952285191
CMS-02 (GSAT-24)        
1 52903U 22067A   26217.71919806 -.00000158  00000+0  00000+0 0  9998
2 52903   0.0114 132.6224 0000645 141.5254  22.0158  1.00271530 15108
GSAT-N2 (GSAT-20)       
1 62028U 24214A   26218.09868008 -.00000015  00000+0  00000+0 0  9994
2 62028   0.0023  39.4614 0001820  14.0371   4.7101  1.00274144  6393
===
INSAT-3E                
1 27951U 03043E   26218.23006383  .00000119  00000+0  00000+0 0  9997
2 27951   9.8135  53.5136 0011722 245.3335 110.1497  1.00798370 54303
===
IRS-P6 (RESOURCESAT-1)  
1 28051U 03046A   26218.32014066  .00000050  00000+0  30284-4 0  9995
2 28051  98.1884 252.3743 0063749 190.5833 226.4921 14.36176850187722
===
GSAT-3 (EDUSAT)         
1 28417U 04036A   26218.22850383 -.00000145  00000+0  00000+0 0  9994
2 28417  11.4543  40.9167 0003772 161.1320 198.7568  0.99269889 79608
===
HAMSAT (VO-52)          
1 28650U 05017B   26218.02366907  .00003022  00000+0  18909-3 0  9992
2 28650  97.9899 243.2184 0018022 223.9914 135.9881 15.10116625154284
===
PSLV DEB                
1 27089U 01049AH  26218.01989716  .00001094  00000+0  92660-4 0  9990
2 27089  98.1139 242.5415 0048724 269.1898 151.0294 14.99449621336856
PSLV DEB                
1 27123U 01049BT  26218.11482466  .00000731  00000+0  12137-3 0  9997
2 27123  97.3733 170.5954 0036566 245.8448 113.8937 14.72372027313667
PSLV DEB                
1 27124U 01049BU  26218.17302522  .00001002  00000+0  10042-3 0  9993
2 27124  98.0478 286.0138 0026992 239.8344 174.9982 14.93507636327199
PSLV DEB                
1 27130U 01049CA  26218.14309226  .00000751  00000+0  93793-4 0  9990
2 27130  98.1268 275.5866 0012908 295.2776 119.4872 14.85412104325817
PSLV DEB                
1 27133U 01049CD  26217.78180133  .00000656  00000+0  11606-3 0  9992
2 27133  97.7532 148.4816 0042583  76.2853 284.3089 14.69840703313616
PSLV DEB                
1 27136U 01049CG  26218.18774413  .00004487  00000+0  25791-3 0  9996
2 27136  97.8945 301.4009 0026969 153.7147 268.4940 15.12735101352470
PSLV DEB                
1 27141U 01049CM  26218.13774400  .00000965  00000+0  10212-3 0  9992
2 27141  98.0732 272.2507 0047112  70.9935 344.2425 14.90858576329437
PSLV DEB                
1 27142U 01049CN  26218.05882862  .00000140  00000+0  63763-4 0  9991
2 27142  97.3578 251.1541 0276470  43.4183 318.8411 14.13797100266031
PSLV DEB                
1 27146U 01049CS  26218.20526150  .00002327  00000+0  20372-3 0  9994
2 27146  98.0422 300.6873 0036626 115.5659 298.8316 14.97245434323984
PSLV DEB                
1 27152U 01049CY  26218.22925609  .00004872  00000+0  29659-3 0  9999
2 27152  97.9851 311.9425 0019196 186.2012 173.8982 15.10767253328535
PSLV DEB                
1 27153U 01049CZ  26217.83794038  .00109795  00000+0  77929-3 0  9999
2 27153  97.8167 331.1229 0008473 249.6111 110.4242 15.73542042339300
PSLV DEB                
1 27160U 01049DG  26218.07236654  .00000223  00000+0  44837-4 0  9998
2 27160  98.3567 256.2763 0047062  93.8730 332.7179 14.70697533318386
PSLV DEB                
1 27305U 01049KB  26218.15274019  .00000779  00000+0  10896-3 0  9998
2 27305  98.2056 280.4354 0036938 331.5851  83.3093 14.80140018320839
PSLV DEB                
1 27580U 01049MY  26216.38178734  .00000561  00000+0  84023-4 0  9996
2 27580  98.2541 256.1735 0043204 173.9206 186.2537 14.78195496287994
PSLV DEB                
1 27582U 01049NA  26216.65941844  .00008458  00000+0  50399-3 0  9999
2 27582  98.3011 292.8834 0024660 211.5095 148.4657 15.11221154300231
PSLV DEB                
1 27585U 01049ND  26217.55461421  .00001466  00000+0  16656-3 0  9990
2 27585  98.2859 252.4985 0051302 128.0143 232.5720 14.87041093309353
PSLV DEB                
1 27653U 01049NQ  26217.61745332  .00001220  00000+0  12955-3 0  9995
2 27653  98.0815 279.9377 0049940 328.9464  30.8803 14.90136539296664
PSLV DEB                
1 27655U 01049NS  26217.17054791  .00003816  00000+0  54081-3 0  9999
2 27655  97.2746 113.2022 0108084 164.0980 196.3669 14.73548213268804
PSLV DEB                
1 28852U 01049PE  26215.41002821  .00000517  00000+0  79031-4 0  9999
2 28852  98.2486 258.9091 0041170 181.5377 192.4470 14.77686188705738
PSLV DEB                
1 28853U 01049PF  26214.41963293  .00004819  00000+0  34444-3 0  9995
2 28853  97.9945 282.3411 0027464  95.8151 264.6206 15.04676392712542
PSLV DEB                
1 34221U 01049PR  26214.30932534  .00002377  00000+0  13485-3 0  9992
2 34221  98.5014 163.6001 0039576 345.9380  14.0743 15.13528516321350
PSLV DEB                
1 35339U 01049PX  26217.31638958  .00002003  00000+0  40134-3 0  9997
2 35339  98.3890 348.6472 0134875 342.9675  16.7018 14.57329101245726
PSLV DEB                
1 35342U 01049QA  26216.07359233  .00000800  00000+0  36286-3 0  9995
2 35342  98.3064 142.6540 0339101 125.2755 238.0635 13.97822977667185
PSLV DEB                
1 35346U 01049QE  26211.88376573  .00023295  00000+0  16621-2 0  9992
2 35346  98.8449  87.1738 0014860 272.6054  87.3467 15.04465717266429
PSLV DEB                
1 35350U 01049QJ  26212.88116822  .00001114  00000+0  25759-3 0  9996
2 35350  98.5067 264.0123 0063463 249.9942 109.4414 14.56051648690460
PSLV DEB                
1 35351U 01049QK  26217.17017692  .00003354  00000+0  61303-3 0  9992
2 35351  98.7941 292.2805 0004145 177.0913 183.0314 14.66650356691768
PSLV DEB                
1 35536U 01049QL  26215.99051148  .00000745  00000+0  41833-3 0  9996
2 35536  98.6403 267.7213 0406302 222.4235 134.4844 13.78663192153493
PSLV DEB                
1 38842U 05017F   26216.95842612  .00023583  00000+0  70286-3 0  9998
2 38842  98.0863 299.7384 0020256 190.0289 170.0551 15.34479340861775
PSLV DEB                
1 39094U 13009J   26218.25791673  .00000764  00000+0  23317-3 0  9992
2 39094  98.3272  46.4454 0009374  19.3555 340.7991 14.44585468705347
PSLV DEB                
1 41792U 16059K   26218.33121093  .00001932  00000+0  26089-3 0  9997
2 41792  97.7761 238.1092 0020181 352.7228   7.3689 14.80073798528294
===
INSAT-4A                
1 28911U 05049A   26218.20691506  .00000074  00000+0  00000+0 0  9996
2 28911   6.5617  71.1293 0006288 125.1411  53.1405  0.99198408 45926
===
INSAT-4B                
1 30793U 07007A   26217.90236047 -.00000268  00000+0  00000+0 0  9990
2 30793   6.2174  72.6106 0016815 156.5179 206.9585  0.99080533 42515
===
===
IMS-1                   
1 32786U 08021D   26217.94493112  .00001869  00000+0  13717-3 0  9993
2 32786  97.9507 205.7990 0002495 300.2546  59.8433 15.04771699990680
===
No GP data found===
PSLV DEB                
1 27089U 01049AH  26218.01989716  .00001094  00000+0  92660-4 0  9990
2 27089  98.1139 242.5415 0048724 269.1898 151.0294 14.99449621336856
PSLV DEB                
1 27123U 01049BT  26218.11482466  .00000731  00000+0  12137-3 0  9997
2 27123  97.3733 170.5954 0036566 245.8448 113.8937 14.72372027313667
PSLV DEB                
1 27124U 01049BU  26218.17302522  .00001002  00000+0  10042-3 0  9993
2 27124  98.0478 286.0138 0026992 239.8344 174.9982 14.93507636327199
PSLV DEB                
1 27130U 01049CA  26218.14309226  .00000751  00000+0  93793-4 0  9990
2 27130  98.1268 275.5866 0012908 295.2776 119.4872 14.85412104325817
PSLV DEB                
1 27133U 01049CD  26217.78180133  .00000656  00000+0  11606-3 0  9992
2 27133  97.7532 148.4816 0042583  76.2853 284.3089 14.69840703313616
PSLV DEB                
1 27136U 01049CG  26218.18774413  .00004487  00000+0  25791-3 0  9996
2 27136  97.8945 301.4009 0026969 153.7147 268.4940 15.12735101352470
PSLV DEB                
1 27141U 01049CM  26218.13774400  .00000965  00000+0  10212-3 0  9992
2 27141  98.0732 272.2507 0047112  70.9935 344.2425 14.90858576329437
PSLV DEB                
1 27142U 01049CN  26218.05882862  .00000140  00000+0  63763-4 0  9991
2 27142  97.3578 251.1541 0276470  43.4183 318.8411 14.13797100266031
PSLV DEB                
1 27146U 01049CS  26218.20526150  .00002327  00000+0  20372-3 0  9994
2 27146  98.0422 300.6873 0036626 115.5659 298.8316 14.97245434323984
PSLV DEB                
1 27152U 01049CY  26218.22925609  .00004872  00000+0  29659-3 0  9999
2 27152  97.9851 311.9425 0019196 186.2012 173.8982 15.10767253328535
PSLV DEB                
1 27153U 01049CZ  26217.83794038  .00109795  00000+0  77929-3 0  9999
2 27153  97.8167 331.1229 0008473 249.6111 110.4242 15.73542042339300
PSLV DEB                
1 27160U 01049DG  26218.07236654  .00000223  00000+0  44837-4 0  9998
2 27160  98.3567 256.2763 0047062  93.8730 332.7179 14.70697533318386
PSLV DEB                
1 27305U 01049KB  26218.15274019  .00000779  00000+0  10896-3 0  9998
2 27305  98.2056 280.4354 0036938 331.5851  83.3093 14.80140018320839
PSLV DEB                
1 27580U 01049MY  26216.38178734  .00000561  00000+0  84023-4 0  9996
2 27580  98.2541 256.1735 0043204 173.9206 186.2537 14.78195496287994
PSLV DEB                
1 27582U 01049NA  26216.65941844  .00008458  00000+0  50399-3 0  9999
2 27582  98.3011 292.8834 0024660 211.5095 148.4657 15.11221154300231
PSLV DEB                
1 27585U 01049ND  26217.55461421  .00001466  00000+0  16656-3 0  9990
2 27585  98.2859 252.4985 0051302 128.0143 232.5720 14.87041093309353
PSLV DEB                
1 27653U 01049NQ  26217.61745332  .00001220  00000+0  12955-3 0  9995
2 27653  98.0815 279.9377 0049940 328.9464  30.8803 14.90136539296664
PSLV DEB                
1 27655U 01049NS  26217.17054791  .00003816  00000+0  54081-3 0  9999
2 27655  97.2746 113.2022 0108084 164.0980 196.3669 14.73548213268804
PSLV DEB                
1 28852U 01049PE  26215.41002821  .00000517  00000+0  79031-4 0  9999
2 28852  98.2486 258.9091 0041170 181.5377 192.4470 14.77686188705738
PSLV DEB                
1 28853U 01049PF  26214.41963293  .00004819  00000+0  34444-3 0  9995
2 28853  97.9945 282.3411 0027464  95.8151 264.6206 15.04676392712542
PSLV DEB                
1 34221U 01049PR  26214.30932534  .00002377  00000+0  13485-3 0  9992
2 34221  98.5014 163.6001 0039576 345.9380  14.0743 15.13528516321350
PSLV DEB                
1 35339U 01049PX  26217.31638958  .00002003  00000+0  40134-3 0  9997
2 35339  98.3890 348.6472 0134875 342.9675  16.7018 14.57329101245726
PSLV DEB                
1 35342U 01049QA  26216.07359233  .00000800  00000+0  36286-3 0  9995
2 35342  98.3064 142.6540 0339101 125.2755 238.0635 13.97822977667185
PSLV DEB                
1 35346U 01049QE  26211.88376573  .00023295  00000+0  16621-2 0  9992
2 35346  98.8449  87.1738 0014860 272.6054  87.3467 15.04465717266429
PSLV DEB                
1 35350U 01049QJ  26212.88116822  .00001114  00000+0  25759-3 0  9996
2 35350  98.5067 264.0123 0063463 249.9942 109.4414 14.56051648690460
PSLV DEB                
1 35351U 01049QK  26217.17017692  .00003354  00000+0  61303-3 0  9992
2 35351  98.7941 292.2805 0004145 177.0913 183.0314 14.66650356691768
PSLV DEB                
1 35536U 01049QL  26215.99051148  .00000745  00000+0  41833-3 0  9996
2 35536  98.6403 267.7213 0406302 222.4235 134.4844 13.78663192153493
PSLV DEB                
1 38842U 05017F   26216.95842612  .00023583  00000+0  70286-3 0  9998
2 38842  98.0863 299.7384 0020256 190.0289 170.0551 15.34479340861775
PSLV DEB                
1 39094U 13009J   26218.25791673  .00000764  00000+0  23317-3 0  9992
2 39094  98.3272  46.4454 0009374  19.3555 340.7991 14.44585468705347
PSLV DEB                
1 41792U 16059K   26218.33121093  .00001932  00000+0  26089-3 0  9997
2 41792  97.7761 238.1092 0020181 352.7228   7.3689 14.80073798528294
===
PSLV DEB                
1 27089U 01049AH  26218.01989716  .00001094  00000+0  92660-4 0  9990
2 27089  98.1139 242.5415 0048724 269.1898 151.0294 14.99449621336856
PSLV DEB                
1 27123U 01049BT  26218.11482466  .00000731  00000+0  12137-3 0  9997
2 27123  97.3733 170.5954 0036566 245.8448 113.8937 14.72372027313667
PSLV DEB                
1 27124U 01049BU  26218.17302522  .00001002  00000+0  10042-3 0  9993
2 27124  98.0478 286.0138 0026992 239.8344 174.9982 14.93507636327199
PSLV DEB                
1 27130U 01049CA  26218.14309226  .00000751  00000+0  93793-4 0  9990
2 27130  98.1268 275.5866 0012908 295.2776 119.4872 14.85412104325817
PSLV DEB                
1 27133U 01049CD  26217.78180133  .00000656  00000+0  11606-3 0  9992
2 27133  97.7532 148.4816 0042583  76.2853 284.3089 14.69840703313616
PSLV DEB                
1 27136U 01049CG  26218.18774413  .00004487  00000+0  25791-3 0  9996
2 27136  97.8945 301.4009 0026969 153.7147 268.4940 15.12735101352470
PSLV DEB                
1 27141U 01049CM  26218.13774400  .00000965  00000+0  10212-3 0  9992
2 27141  98.0732 272.2507 0047112  70.9935 344.2425 14.90858576329437
PSLV DEB                
1 27142U 01049CN  26218.05882862  .00000140  00000+0  63763-4 0  9991
2 27142  97.3578 251.1541 0276470  43.4183 318.8411 14.13797100266031
PSLV DEB                
1 27146U 01049CS  26218.20526150  .00002327  00000+0  20372-3 0  9994
2 27146  98.0422 300.6873 0036626 115.5659 298.8316 14.97245434323984
PSLV DEB                
1 27152U 01049CY  26218.22925609  .00004872  00000+0  29659-3 0  9999
2 27152  97.9851 311.9425 0019196 186.2012 173.8982 15.10767253328535
PSLV DEB                
1 27153U 01049CZ  26217.83794038  .00109795  00000+0  77929-3 0  9999
2 27153  97.8167 331.1229 0008473 249.6111 110.4242 15.73542042339300
PSLV DEB                
1 27160U 01049DG  26218.07236654  .00000223  00000+0  44837-4 0  9998
2 27160  98.3567 256.2763 0047062  93.8730 332.7179 14.70697533318386
PSLV DEB                
1 27305U 01049KB  26218.15274019  .00000779  00000+0  10896-3 0  9998
2 27305  98.2056 280.4354 0036938 331.5851  83.3093 14.80140018320839
PSLV DEB                
1 27580U 01049MY  26216.38178734  .00000561  00000+0  84023-4 0  9996
2 27580  98.2541 256.1735 0043204 173.9206 186.2537 14.78195496287994
PSLV DEB                
1 27582U 01049NA  26216.65941844  .00008458  00000+0  50399-3 0  9999
2 27582  98.3011 292.8834 0024660 211.5095 148.4657 15.11221154300231
PSLV DEB                
1 27585U 01049ND  26217.55461421  .00001466  00000+0  16656-3 0  9990
2 27585  98.2859 252.4985 0051302 128.0143 232.5720 14.87041093309353
PSLV DEB                
1 27653U 01049NQ  26217.61745332  .00001220  00000+0  12955-3 0  9995
2 27653  98.0815 279.9377 0049940 328.9464  30.8803 14.90136539296664
PSLV DEB                
1 27655U 01049NS  26217.17054791  .00003816  00000+0  54081-3 0  9999
2 27655  97.2746 113.2022 0108084 164.0980 196.3669 14.73548213268804
PSLV DEB                
1 28852U 01049PE  26215.41002821  .00000517  00000+0  79031-4 0  9999
2 28852  98.2486 258.9091 0041170 181.5377 192.4470 14.77686188705738
PSLV DEB                
1 28853U 01049PF  26214.41963293  .00004819  00000+0  34444-3 0  9995
2 28853  97.9945 282.3411 0027464  95.8151 264.6206 15.04676392712542
PSLV DEB                
1 34221U 01049PR  26214.30932534  .00002377  00000+0  13485-3 0  9992
2 34221  98.5014 163.6001 0039576 345.9380  14.0743 15.13528516321350
PSLV DEB                
1 35339U 01049PX  26217.31638958  .00002003  00000+0  40134-3 0  9997
2 35339  98.3890 348.6472 0134875 342.9675  16.7018 14.57329101245726
PSLV DEB                
1 35342U 01049QA  26216.07359233  .00000800  00000+0  36286-3 0  9995
2 35342  98.3064 142.6540 0339101 125.2755 238.0635 13.97822977667185
PSLV DEB                
1 35346U 01049QE  26211.88376573  .00023295  00000+0  16621-2 0  9992
2 35346  98.8449  87.1738 0014860 272.6054  87.3467 15.04465717266429
PSLV DEB                
1 35350U 01049QJ  26212.88116822  .00001114  00000+0  25759-3 0  9996
2 35350  98.5067 264.0123 0063463 249.9942 109.4414 14.56051648690460
PSLV DEB                
1 35351U 01049QK  26217.17017692  .00003354  00000+0  61303-3 0  9992
2 35351  98.7941 292.2805 0004145 177.0913 183.0314 14.66650356691768
PSLV DEB                
1 35536U 01049QL  26215.99051148  .00000745  00000+0  41833-3 0  9996
2 35536  98.6403 267.7213 0406302 222.4235 134.4844 13.78663192153493
PSLV DEB                
1 38842U 05017F   26216.95842612  .00023583  00000+0  70286-3 0  9998
2 38842  98.0863 299.7384 0020256 190.0289 170.0551 15.34479340861775
PSLV DEB                
1 39094U 13009J   26218.25791673  .00000764  00000+0  23317-3 0  9992
2 39094  98.3272  46.4454 0009374  19.3555 340.7991 14.44585468705347
PSLV DEB                
1 41792U 16059K   26218.33121093  .00001932  00000+0  26089-3 0  9997
2 41792  97.7761 238.1092 0020181 352.7228   7.3689 14.80073798528294
===
PSLV DEB                
1 27089U 01049AH  26218.01989716  .00001094  00000+0  92660-4 0  9990
2 27089  98.1139 242.5415 0048724 269.1898 151.0294 14.99449621336856
PSLV DEB                
1 27123U 01049BT  26218.11482466  .00000731  00000+0  12137-3 0  9997
2 27123  97.3733 170.5954 0036566 245.8448 113.8937 14.72372027313667
PSLV DEB                
1 27124U 01049BU  26218.17302522  .00001002  00000+0  10042-3 0  9993
2 27124  98.0478 286.0138 0026992 239.8344 174.9982 14.93507636327199
PSLV DEB                
1 27130U 01049CA  26218.14309226  .00000751  00000+0  93793-4 0  9990
2 27130  98.1268 275.5866 0012908 295.2776 119.4872 14.85412104325817
PSLV DEB                
1 27133U 01049CD  26217.78180133  .00000656  00000+0  11606-3 0  9992
2 27133  97.7532 148.4816 0042583  76.2853 284.3089 14.69840703313616
PSLV DEB                
1 27136U 01049CG  26218.18774413  .00004487  00000+0  25791-3 0  9996
2 27136  97.8945 301.4009 0026969 153.7147 268.4940 15.12735101352470
PSLV DEB                
1 27141U 01049CM  26218.13774400  .00000965  00000+0  10212-3 0  9992
2 27141  98.0732 272.2507 0047112  70.9935 344.2425 14.90858576329437
PSLV DEB                
1 27142U 01049CN  26218.05882862  .00000140  00000+0  63763-4 0  9991
2 27142  97.3578 251.1541 0276470  43.4183 318.8411 14.13797100266031
PSLV DEB                
1 27146U 01049CS  26218.20526150  .00002327  00000+0  20372-3 0  9994
2 27146  98.0422 300.6873 0036626 115.5659 298.8316 14.97245434323984
PSLV DEB                
1 27152U 01049CY  26218.22925609  .00004872  00000+0  29659-3 0  9999
2 27152  97.9851 311.9425 0019196 186.2012 173.8982 15.10767253328535
PSLV DEB                
1 27153U 01049CZ  26217.83794038  .00109795  00000+0  77929-3 0  9999
2 27153  97.8167 331.1229 0008473 249.6111 110.4242 15.73542042339300
PSLV DEB                
1 27160U 01049DG  26218.07236654  .00000223  00000+0  44837-4 0  9998
2 27160  98.3567 256.2763 0047062  93.8730 332.7179 14.70697533318386
PSLV DEB                
1 27305U 01049KB  26218.15274019  .00000779  00000+0  10896-3 0  9998
2 27305  98.2056 280.4354 0036938 331.5851  83.3093 14.80140018320839
PSLV DEB                
1 27580U 01049MY  26216.38178734  .00000561  00000+0  84023-4 0  9996
2 27580  98.2541 256.1735 0043204 173.9206 186.2537 14.78195496287994
PSLV DEB                
1 27582U 01049NA  26216.65941844  .00008458  00000+0  50399-3 0  9999
2 27582  98.3011 292.8834 0024660 211.5095 148.4657 15.11221154300231
PSLV DEB                
1 27585U 01049ND  26217.55461421  .00001466  00000+0  16656-3 0  9990
2 27585  98.2859 252.4985 0051302 128.0143 232.5720 14.87041093309353
PSLV DEB                
1 27653U 01049NQ  26217.61745332  .00001220  00000+0  12955-3 0  9995
2 27653  98.0815 279.9377 0049940 328.9464  30.8803 14.90136539296664
PSLV DEB                
1 27655U 01049NS  26217.17054791  .00003816  00000+0  54081-3 0  9999
2 27655  97.2746 113.2022 0108084 164.0980 196.3669 14.73548213268804
PSLV DEB                
1 28852U 01049PE  26215.41002821  .00000517  00000+0  79031-4 0  9999
2 28852  98.2486 258.9091 0041170 181.5377 192.4470 14.77686188705738
PSLV DEB                
1 28853U 01049PF  26214.41963293  .00004819  00000+0  34444-3 0  9995
2 28853  97.9945 282.3411 0027464  95.8151 264.6206 15.04676392712542
PSLV DEB                
1 34221U 01049PR  26214.30932534  .00002377  00000+0  13485-3 0  9992
2 34221  98.5014 163.6001 0039576 345.9380  14.0743 15.13528516321350
PSLV DEB                
1 35339U 01049PX  26217.31638958  .00002003  00000+0  40134-3 0  9997
2 35339  98.3890 348.6472 0134875 342.9675  16.7018 14.57329101245726
PSLV DEB                
1 35342U 01049QA  26216.07359233  .00000800  00000+0  36286-3 0  9995
2 35342  98.3064 142.6540 0339101 125.2755 238.0635 13.97822977667185
PSLV DEB                
1 35346U 01049QE  26211.88376573  .00023295  00000+0  16621-2 0  9992
2 35346  98.8449  87.1738 0014860 272.6054  87.3467 15.04465717266429
PSLV DEB                
1 35350U 01049QJ  26212.88116822  .00001114  00000+0  25759-3 0  9996
2 35350  98.5067 264.0123 0063463 249.9942 109.4414 14.56051648690460
PSLV DEB                
1 35351U 01049QK  26217.17017692  .00003354  00000+0  61303-3 0  9992
2 35351  98.7941 292.2805 0004145 177.0913 183.0314 14.66650356691768
PSLV DEB                
1 35536U 01049QL  26215.99051148  .00000745  00000+0  41833-3 0  9996
2 35536  98.6403 267.7213 0406302 222.4235 134.4844 13.78663192153493
PSLV DEB                
1 38842U 05017F   26216.95842612  .00023583  00000+0  70286-3 0  9998
2 38842  98.0863 299.7384 0020256 190.0289 170.0551 15.34479340861775
PSLV DEB                
1 39094U 13009J   26218.25791673  .00000764  00000+0  23317-3 0  9992
2 39094  98.3272  46.4454 0009374  19.3555 340.7991 14.44585468705347
PSLV DEB                
1 41792U 16059K   26218.33121093  .00001932  00000+0  26089-3 0  9997
2 41792  97.7761 238.1092 0020181 352.7228   7.3689 14.80073798528294
===
PSLV DEB                
1 27089U 01049AH  26218.01989716  .00001094  00000+0  92660-4 0  9990
2 27089  98.1139 242.5415 0048724 269.1898 151.0294 14.99449621336856
PSLV DEB                
1 27123U 01049BT  26218.11482466  .00000731  00000+0  12137-3 0  9997
2 27123  97.3733 170.5954 0036566 245.8448 113.8937 14.72372027313667
PSLV DEB                
1 27124U 01049BU  26218.17302522  .00001002  00000+0  10042-3 0  9993
2 27124  98.0478 286.0138 0026992 239.8344 174.9982 14.93507636327199
PSLV DEB                
1 27130U 01049CA  26218.14309226  .00000751  00000+0  93793-4 0  9990
2 27130  98.1268 275.5866 0012908 295.2776 119.4872 14.85412104325817
PSLV DEB                
1 27133U 01049CD  26217.78180133  .00000656  00000+0  11606-3 0  9992
2 27133  97.7532 148.4816 0042583  76.2853 284.3089 14.69840703313616
PSLV DEB                
1 27136U 01049CG  26218.18774413  .00004487  00000+0  25791-3 0  9996
2 27136  97.8945 301.4009 0026969 153.7147 268.4940 15.12735101352470
PSLV DEB                
1 27141U 01049CM  26218.13774400  .00000965  00000+0  10212-3 0  9992
2 27141  98.0732 272.2507 0047112  70.9935 344.2425 14.90858576329437
PSLV DEB                
1 27142U 01049CN  26218.05882862  .00000140  00000+0  63763-4 0  9991
2 27142  97.3578 251.1541 0276470  43.4183 318.8411 14.13797100266031
PSLV DEB                
1 27146U 01049CS  26218.20526150  .00002327  00000+0  20372-3 0  9994
2 27146  98.0422 300.6873 0036626 115.5659 298.8316 14.97245434323984
PSLV DEB                
1 27152U 01049CY  26218.22925609  .00004872  00000+0  29659-3 0  9999
2 27152  97.9851 311.9425 0019196 186.2012 173.8982 15.10767253328535
PSLV DEB                
1 27153U 01049CZ  26217.83794038  .00109795  00000+0  77929-3 0  9999
2 27153  97.8167 331.1229 0008473 249.6111 110.4242 15.73542042339300
PSLV DEB                
1 27160U 01049DG  26218.07236654  .00000223  00000+0  44837-4 0  9998
2 27160  98.3567 256.2763 0047062  93.8730 332.7179 14.70697533318386
PSLV DEB                
1 27305U 01049KB  26218.15274019  .00000779  00000+0  10896-3 0  9998
2 27305  98.2056 280.4354 0036938 331.5851  83.3093 14.80140018320839
PSLV DEB                
1 27580U 01049MY  26216.38178734  .00000561  00000+0  84023-4 0  9996
2 27580  98.2541 256.1735 0043204 173.9206 186.2537 14.78195496287994
PSLV DEB                
1 27582U 01049NA  26216.65941844  .00008458  00000+0  50399-3 0  9999
2 27582  98.3011 292.8834 0024660 211.5095 148.4657 15.11221154300231
PSLV DEB                
1 27585U 01049ND  26217.55461421  .00001466  00000+0  16656-3 0  9990
2 27585  98.2859 252.4985 0051302 128.0143 232.5720 14.87041093309353
PSLV DEB                
1 27653U 01049NQ  26217.61745332  .00001220  00000+0  12955-3 0  9995
2 27653  98.0815 279.9377 0049940 328.9464  30.8803 14.90136539296664
PSLV DEB                
1 27655U 01049NS  26217.17054791  .00003816  00000+0  54081-3 0  9999
2 27655  97.2746 113.2022 0108084 164.0980 196.3669 14.73548213268804
PSLV DEB                
1 28852U 01049PE  26215.41002821  .00000517  00000+0  79031-4 0  9999
2 28852  98.2486 258.9091 0041170 181.5377 192.4470 14.77686188705738
PSLV DEB                
1 28853U 01049PF  26214.41963293  .00004819  00000+0  34444-3 0  9995
2 28853  97.9945 282.3411 0027464  95.8151 264.6206 15.04676392712542
PSLV DEB                
1 34221U 01049PR  26214.30932534  .00002377  00000+0  13485-3 0  9992
2 34221  98.5014 163.6001 0039576 345.9380  14.0743 15.13528516321350
PSLV DEB                
1 35339U 01049PX  26217.31638958  .00002003  00000+0  40134-3 0  9997
2 35339  98.3890 348.6472 0134875 342.9675  16.7018 14.57329101245726
PSLV DEB                
1 35342U 01049QA  26216.07359233  .00000800  00000+0  36286-3 0  9995
2 35342  98.3064 142.6540 0339101 125.2755 238.0635 13.97822977667185
PSLV DEB                
1 35346U 01049QE  26211.88376573  .00023295  00000+0  16621-2 0  9992
2 35346  98.8449  87.1738 0014860 272.6054  87.3467 15.04465717266429
PSLV DEB                
1 35350U 01049QJ  26212.88116822  .00001114  00000+0  25759-3 0  9996
2 35350  98.5067 264.0123 0063463 249.9942 109.4414 14.56051648690460
PSLV DEB                
1 35351U 01049QK  26217.17017692  .00003354  00000+0  61303-3 0  9992
2 35351  98.7941 292.2805 0004145 177.0913 183.0314 14.66650356691768
PSLV DEB                
1 35536U 01049QL  26215.99051148  .00000745  00000+0  41833-3 0  9996
2 35536  98.6403 267.7213 0406302 222.4235 134.4844 13.78663192153493
PSLV DEB                
1 38842U 05017F   26216.95842612  .00023583  00000+0  70286-3 0  9998
2 38842  98.0863 299.7384 0020256 190.0289 170.0551 15.34479340861775
PSLV DEB                
1 39094U 13009J   26218.25791673  .00000764  00000+0  23317-3 0  9992
2 39094  98.3272  46.4454 0009374  19.3555 340.7991 14.44585468705347
PSLV DEB                
1 41792U 16059K   26218.33121093  .00001932  00000+0  26089-3 0  9997
2 41792  97.7761 238.1092 0020181 352.7228   7.3689 14.80073798528294
===
PSLV DEB                
1 27089U 01049AH  26218.01989716  .00001094  00000+0  92660-4 0  9990
2 27089  98.1139 242.5415 0048724 269.1898 151.0294 14.99449621336856
PSLV DEB                
1 27123U 01049BT  26218.11482466  .00000731  00000+0  12137-3 0  9997
2 27123  97.3733 170.5954 0036566 245.8448 113.8937 14.72372027313667
PSLV DEB                
1 27124U 01049BU  26218.17302522  .00001002  00000+0  10042-3 0  9993
2 27124  98.0478 286.0138 0026992 239.8344 174.9982 14.93507636327199
PSLV DEB                
1 27130U 01049CA  26218.14309226  .00000751  00000+0  93793-4 0  9990
2 27130  98.1268 275.5866 0012908 295.2776 119.4872 14.85412104325817
PSLV DEB                
1 27133U 01049CD  26217.78180133  .00000656  00000+0  11606-3 0  9992
2 27133  97.7532 148.4816 0042583  76.2853 284.3089 14.69840703313616
PSLV DEB                
1 27136U 01049CG  26218.18774413  .00004487  00000+0  25791-3 0  9996
2 27136  97.8945 301.4009 0026969 153.7147 268.4940 15.12735101352470
PSLV DEB                
1 27141U 01049CM  26218.13774400  .00000965  00000+0  10212-3 0  9992
2 27141  98.0732 272.2507 0047112  70.9935 344.2425 14.90858576329437
PSLV DEB                
1 27142U 01049CN  26218.05882862  .00000140  00000+0  63763-4 0  9991
2 27142  97.3578 251.1541 0276470  43.4183 318.8411 14.13797100266031
PSLV DEB                
1 27146U 01049CS  26218.20526150  .00002327  00000+0  20372-3 0  9994
2 27146  98.0422 300.6873 0036626 115.5659 298.8316 14.97245434323984
PSLV DEB                
1 27152U 01049CY  26218.22925609  .00004872  00000+0  29659-3 0  9999
2 27152  97.9851 311.9425 0019196 186.2012 173.8982 15.10767253328535
PSLV DEB                
1 27153U 01049CZ  26217.83794038  .00109795  00000+0  77929-3 0  9999
2 27153  97.8167 331.1229 0008473 249.6111 110.4242 15.73542042339300
PSLV DEB                
1 27160U 01049DG  26218.07236654  .00000223  00000+0  44837-4 0  9998
2 27160  98.3567 256.2763 0047062  93.8730 332.7179 14.70697533318386
PSLV DEB                
1 27305U 01049KB  26218.15274019  .00000779  00000+0  10896-3 0  9998
2 27305  98.2056 280.4354 0036938 331.5851  83.3093 14.80140018320839
PSLV DEB                
1 27580U 01049MY  26216.38178734  .00000561  00000+0  84023-4 0  9996
2 27580  98.2541 256.1735 0043204 173.9206 186.2537 14.78195496287994
PSLV DEB                
1 27582U 01049NA  26216.65941844  .00008458  00000+0  50399-3 0  9999
2 27582  98.3011 292.8834 0024660 211.5095 148.4657 15.11221154300231
PSLV DEB                
1 27585U 01049ND  26217.55461421  .00001466  00000+0  16656-3 0  9990
2 27585  98.2859 252.4985 0051302 128.0143 232.5720 14.87041093309353
PSLV DEB                
1 27653U 01049NQ  26217.61745332  .00001220  00000+0  12955-3 0  9995
2 27653  98.0815 279.9377 0049940 328.9464  30.8803 14.90136539296664
PSLV DEB                
1 27655U 01049NS  26217.17054791  .00003816  00000+0  54081-3 0  9999
2 27655  97.2746 113.2022 0108084 164.0980 196.3669 14.73548213268804
PSLV DEB                
1 28852U 01049PE  26215.41002821  .00000517  00000+0  79031-4 0  9999
2 28852  98.2486 258.9091 0041170 181.5377 192.4470 14.77686188705738
PSLV DEB                
1 28853U 01049PF  26214.41963293  .00004819  00000+0  34444-3 0  9995
2 28853  97.9945 282.3411 0027464  95.8151 264.6206 15.04676392712542
PSLV DEB                
1 34221U 01049PR  26214.30932534  .00002377  00000+0  13485-3 0  9992
2 34221  98.5014 163.6001 0039576 345.9380  14.0743 15.13528516321350
PSLV DEB                
1 35339U 01049PX  26217.31638958  .00002003  00000+0  40134-3 0  9997
2 35339  98.3890 348.6472 0134875 342.9675  16.7018 14.57329101245726
PSLV DEB                
1 35342U 01049QA  26216.07359233  .00000800  00000+0  36286-3 0  9995
2 35342  98.3064 142.6540 0339101 125.2755 238.0635 13.97822977667185
PSLV DEB                
1 35346U 01049QE  26211.88376573  .00023295  00000+0  16621-2 0  9992
2 35346  98.8449  87.1738 0014860 272.6054  87.3467 15.04465717266429
PSLV DEB                
1 35350U 01049QJ  26212.88116822  .00001114  00000+0  25759-3 0  9996
2 35350  98.5067 264.0123 0063463 249.9942 109.4414 14.56051648690460
PSLV DEB                
1 35351U 01049QK  26217.17017692  .00003354  00000+0  61303-3 0  9992
2 35351  98.7941 292.2805 0004145 177.0913 183.0314 14.66650356691768
PSLV DEB                
1 35536U 01049QL  26215.99051148  .00000745  00000+0  41833-3 0  9996
2 35536  98.6403 267.7213 0406302 222.4235 134.4844 13.78663192153493
PSLV DEB                
1 38842U 05017F   26216.95842612  .00023583  00000+0  70286-3 0  9998
2 38842  98.0863 299.7384 0020256 190.0289 170.0551 15.34479340861775
PSLV DEB                
1 39094U 13009J   26218.25791673  .00000764  00000+0  23317-3 0  9992
2 39094  98.3272  46.4454 0009374  19.3555 340.7991 14.44585468705347
PSLV DEB                
1 41792U 16059K   26218.33121093  .00001932  00000+0  26089-3 0  9997
2 41792  97.7761 238.1092 0020181 352.7228   7.3689 14.80073798528294
===
===
GSAT-12                 
1 37746U 11034A   26218.21563177  .00000058  00000+0  00000+0 0  9998
2 37746   5.4247  75.4047 0005709 161.4171  37.8412  0.98857864 43827
===
RISAT-1                 
1 38248U 12017A   26218.13705390  .00047909  00000+0  35828-3 0  9990
2 38248  97.4301 268.9360 0000917 185.5206 174.6047 15.72564389789912
===
No GP data found===
IRNSS-1D                
1 40547U 15018A   26218.03104867  .00000036  00000+0  00000+0 0  9990
2 40547  19.4767 237.9340 0008632 344.9739 189.0377  0.97957187 41397
===
===
PRATHAM                 
1 41783U 16059A   26217.95942196  .00000498  00000+0  95977-4 0  9998
2 41783  97.8357 212.6384 0032557  61.5465 298.9014 14.67254535526816
===
===
No GP data found===
OBJECT BA               
1 43806U 18099BA  26218.06887031  .00003522  00000+0  18520-3 0  9990
2 43806  97.3958 264.2228 0008246 144.7120 215.4660 15.16282217419990
OBJECT BE               
1 43810U 18099BE  26218.08109060  .00001731  00000+0  10741-3 0  9993
2 43810  97.3863 256.1336 0007804 159.0204 201.1348 15.10971067419549
OBJECT BS               
1 43822U 18099BS  26218.07725176  .00003186  00000+0  17419-3 0  9992
2 43822  97.4285 266.9956 0008135 166.0232 194.1227 15.14963178413779
OBJECT B                
1 47692U 21014B   26218.26598302 -.00000034  00000+0  88274-4 0  9990
2 47692  63.4049  81.6121 0175267   1.2510 358.8919 13.44232191267213
OBJECT B                
1 47700U 21015B   26218.04616845  .00008156  00000+0  17440-3 0  9998
2 47700  97.1184 251.9087 0023817  89.6115 270.7863 15.44763506302114
OBJECT B                
1 47855U 21020B   26218.25263846 -.00000206  00000+0 -18173-3 0  9991
2 47855  63.4078 141.4038 0175012   1.2287 358.9134 13.44255683264912
OBJECT B                
1 49316U 21091B   26218.26756666  .00001641  00000+0  82079-4 0  9990
2 49316  97.4485  45.0902 0011949 221.4541 138.5788 15.18777740266589
OBJECT B                
1 51825U 22019B   26218.32707278  .00150424  10329-4  49704-3 0  9992
2 51825  97.3432 313.9460 0005881 250.6894 109.3744 15.90409246247699
OBJECT B                
1 51947U 22023B   26218.23133231  .00010315  00000+0  44174-3 0  9994
2 51947  63.4823  99.9254 0106564 349.8031  10.0918 15.18215258245314
OBJECT B                
1 52717U 22056B   26218.32347855  .00000066  00000+0  10963-3 0  9996
2 52717  86.0039  79.4885 0042825 264.0577  95.5677 13.29594188204974
OBJECT B                
1 54362U 22158B   26218.31980443  .00014102  00000+0  20589-3 0  9993
2 54362  97.4931 345.5550 0010937 125.9612 234.2659 15.55710918206548
OBJECT B                
1 56158U 23048B   26218.31202351 -.00000062  00000+0  33343-4 0  9996
2 56158  63.4031 200.8503 0224402  24.7125 336.4467 13.68545339167506
OBJECT B                
1 56732U 23069B   26218.19260043  .00003042  00000+0  18969-3 0  9991
2 56732  41.0081 145.0213 0012280 235.7004 124.2647 15.10938379177792
OBJECT B                
1 58821U 24016B   26218.24824777  .00230976  21871-4  71900-3 0  9997
2 58821  97.4387 319.3155 0007582 241.0697 118.9816 15.91532104142082
OBJECT B                
1 58850U 24018B   26218.29689161  .00003067  00000+0  32998-3 0  9991
2 58850  58.6941  41.1190 0414303 167.3822 193.7973 14.44107316132636
OBJECT B                
1 59774U 24092B   26218.29436759  .00005621  00000+0  19861-3 0  9994
2 59774  97.6541 348.8176 0008494  15.3969 344.7527 15.29595767123195
OBJECT B                
1 59806U 24094B   26218.33944947  .00003826  00000+0  19903-3 0  9992
2 59806  97.3864 288.0856 0002941 285.4645  74.6263 15.16631211122767
OBJECT B                
1 59918U 24105B   26218.26709895  .00004437  00000+0  21005-3 0  9997
2 59918  97.5819 233.9310 0013979  74.8011 285.4769 15.19792620120651
OBJECT B                
1 60013U 24110B   26218.30411863  .00004255  00000+0  18310-3 0  9994
2 60013  97.5726 314.6607 0012170  78.0956 282.1645 15.23115466119813
OBJECT B                
1 60746U 24153B   26218.28156544  .00007595  00000+0  22932-3 0  9998
2 60746  97.6837 359.7347 0009004 350.7776   9.3299 15.34531689107635
OBJECT B                
1 61180U 24166B   26216.94194086  .00019284  00000+0  12826-3 0  9998
2 61180  96.6709 106.3014 0005862  90.2768 269.9170 15.75438854108411
OBJECT B                
1 61239U 24174B   26218.27445742  .00002191  00000+0  13619-3 0  9998
2 61239  97.4508 220.3487 0022674 114.6922 245.6672 15.10470867102956
OBJECT BE               
1 61787U 24199BE  26218.25551118  .00005416  00000+0  14995-3 0  9997
2 61787  97.2938  86.8497 0014708 122.4658 237.8011 15.37297365144783
OBJECT B                
1 61870U 24203B   26218.28217507  .00008376  00000+0  27697-3 0  9991
2 61870  97.4139 288.5839 0012219 141.2052 219.0069 15.31535755 96631
OBJECT B                
1 61895U 24205B   26218.31422435  .00006678  00000+0  22217-3 0  9998
2 61895  97.4108 295.9299 0009185 206.5551 153.5221 15.31452984 96356
OBJECT B                
1 62186U 24226B   26218.26707804 -.00000092  00000+0  64889-4 0  9992
2 62186  50.0041 145.3625 0011802 229.6277 130.3570 13.41505220 82437
TRANSPORTER-12 OBJECT BA
1 62657U 25009BA  26218.15342825  .00004775  00000+0  16831-3 0  9995
2 62657  97.3923 299.5804 0003354 101.7120 258.4497 15.29757350 86563
TRANSPORTER-12 OBJECT BR
1 62672U 25009BR  26218.22426605  .00002488  00000+0  10781-3 0  9996
2 62672  97.3927 296.5692 0005582 143.2416 216.9205 15.23301364144004
TRANSPORTER-12 OBJECT BT
1 62674U 25009BT  26218.19665934  .00006514  00000+0  21891-3 0  9992
2 62674  97.4035 300.5262 0005963 127.1575 233.0212 15.31156234144210
OBJECT B                
1 62726U 25012B   26218.18509133  .00002697  00000+0  12234-3 0  9990
2 62726  97.4200 290.5535 0010599 101.0271 259.2158 15.21637563 85859
OBJECT B                
1 62730U 25013B   26218.32542623  .00001881  00000+0  11447-3 0  9992
2 62730  97.6609  27.7832 0012946 191.1849 168.9095 15.11609232 84900
TRANSPORTER-13 OBJECT BC
1 63260U 25052BC  26218.22503791  .00000849  00000+0  83187-4 0  9990
2 63260  97.6774 108.5640 0002440 126.9204 233.2241 14.94807566 76108
OBJECT B                
1 63292U 25055B   26218.29747934  .00003009  00000+0  17533-3 0  9996
2 63292  97.6560 359.2284 0035067 343.0699  16.9358 15.12284910 76654
SHIYAN-27 OBJECT B      
1 63600U 25078B   26218.26243848 -.00000007  00000+0  52130-4 0  9995
2 63600  99.6939 224.7223 0001069  98.1625 261.9635 13.57251842 64326
OBJECT B                
1 64088U 25108B   26218.25934959  .00004677  00000+0  22528-3 0  9992
2 64088  97.4699 293.4966 0007838 184.7151 175.4011 15.19206852 66969
TRANSPORTER-14 OBJECT BQ
1 64590U 25135BQ  26218.28468007  .00001092  00000+0  10719-3 0  9996
2 64590  97.7757 332.2202 0005960 152.1372 208.0169 14.94216533 61385
OBJECT B                
1 65260U 25180B   26208.60438646  .00003789  00000+0  20202-3 0  9995
2 65260  97.5316 335.4741 0014561 177.1823 182.9494 15.15701901 51783
OBJECT B                
1 65489U 25197B   26218.25130377  .00002512  00000+0  12019-3 0  9998
2 65489  97.4116  43.6268 0013458 184.7735 175.3374 15.19819265 50885
OBJECT B                
1 65939U 25226B   26218.23170751  .00002445  00000+0  15779-3 0  9990
2 65939  97.6372 296.6001 0011419 342.9476  17.1367 15.09178633 45123
OBJECT B                
1 66054U 25234B   26218.18712984  .00002843  00000+0  12936-3 0  9996
2 66054  97.4729 287.0649 0009179 279.5367  80.4831 15.21502838 44245
OBJECT B                
1 66651U 25274B   26218.30702814  .00001129  00000+0  11261-3 0  9994
2 66651  97.7457 146.7001 0011658 177.4012 182.7270 14.93458954 37691
OBJECT B                
1 66914U 25284B   26218.31167065  .00000110  00000+0  71645-4 0  9993
2 66914  80.3948 236.8663 0012684 100.9654 259.2934 13.97333462 34484
OBJECT B                
1 67249U 25313B   26218.18704625  .00002606  00000+0  20018-3 0  9991
2 67249  97.5077 280.0348 0292122 172.3228 188.2604 14.74469555 32502
OBJECT BC               
1 67298U 25313BC  26217.47527107  .00102907  00000+0  59807-3 0  9997
2 67298  97.3751 296.8419 0010098 233.5145 126.5191 15.78133437 30950
OBJECT BD               
1 67299U 25313BD  26216.20206743  .00172697  12890-4  57994-3 0  9991
2 67299  97.3661 296.0660 0014294 268.0486  91.9150 15.89927150 33659
TWILIGHT-1 OBJECT B     
1 67364U 26004B   26217.92774850  .00001186  00000+0  13559-3 0  9999
2 67364  97.8092 215.7259 0007855 336.8437  23.2424 14.87861453 30684
OBJECT BE               
1 67482U 25313BE  26218.17416153  .00412698  00000+0  23292-2 0  9997
2 67482  97.3757 297.7901 0010632 233.0270 127.0024 15.77969838 31071
OBJECT B                
1 67747U 26027B   26218.31369672  .00003794  00000+0  18016-3 0  9995
2 67747  97.5110 346.2219 0010886  50.2160 310.0031 15.19802613 26574
OBJECT BF               
1 67755U 25313BF  26217.75176394  .00126191  79738-5  40365-3 0  9994
2 67755  97.3661 297.7146 0011849 238.1890 121.8230 15.90970873 29562
TRANSPORTER-16 OBJECT BD
1 68467U 26067BD  26218.12577488  .00009214  00000+0  42379-3 0  9996
2 68467  97.4432 175.7475 0003393 254.4045 105.6816 15.20560031 19527
TRANSPORTER-16 OBJECT BP
1 68477U 26067BP  26217.82393527  .00004458  00000+0  43933-3 0  9995
2 68477  97.7526 175.1841 0002251 251.4006 108.6969 14.92528919 18531
JILIN GAOFEN OBJECT B   
1 68692U 26080B   26218.26379210  .00002787  00000+0  17950-3 0  9994
2 68692  97.6570 293.7105 0015864 230.9850 128.9967 15.09089218 17211
KAKUSHIN RISING OBJECT B
1 68793U 26088B   26218.26818850  .00001946  00000+0  13261-3 0  9999
2 68793  97.5129   6.3290 0013796 294.4014  65.5774 15.07344523 15833
OBJECT B                
1 69098U 26106B   26218.26815484  .00001936  00000+0  12286-3 0  9994
2 69098  97.5055 299.2831 0014260 356.7106   3.4028 15.09995395 12533
GUOWANG TEST OBJECT B   
1 69321U 26120B   26217.24268334  .00002367  00000+0  72749-4 0  9992
2 69321  54.9960 166.8475 0012205  80.9525 279.2883 15.37947872 10241
DTC TEST OBJECT B       
1 69473U 26128B   26217.94449997  .00023867  00000+0  34262-3 0  9996
2 69473  54.9924  75.0184 0012771  73.9292 286.3149 15.55973618  8965
OBJECT B                
1 69539U 26134B   26212.13590502  .00005727  00000+0  35750-3 0  9999
2 69539  97.6969 282.4136 0017280 122.3293 237.9612 15.09772616  6938
GUOWANG OBJECT B        
1 69573U 26137B   26213.42532294 -.00000200  00000+0 -77763-4 0  9991
2 69573  50.0167  77.0889 0002453  51.2348 308.8759 13.64736035  6292
CENTISPACE-1 GROUP 05 O*
1 69583U 26138B   26217.99215865  .00000057  00000+0  10699-3 0  9993
2 69583  55.1427  97.2298 0012158  29.0667 331.0982 14.15668806  7076
OBJECT B                
1 69793U 26152B   26218.17259245  .00046923  00000+0  40510-3 0  9990
2 69793  20.5963 158.7197 0022138 293.7006  66.1119 15.67028979  5308
TRANSPORTER-17 OBJECT BA
1 69917U 26156BA  26217.70624864  .00001175  00000+0  11967-3 0  9997
2 69917  97.7552 117.7267 0011244  68.5555 291.6862 14.92573083  4387
TRANSPORTER-17 OBJECT BE
1 69921U 26156BE  26218.25453695  .00002306  00000+0  23272-3 0  9994
2 69921  97.7518 118.2317 0008303  64.8754 295.3326 14.92023936  4460
TRANSPORTER-17 OBJECT BJ
1 69925U 26156BJ  26218.18193085  .00002777  00000+0  27689-3 0  9992
2 69925  97.7481 118.1583 0009930  58.9782 301.2411 14.92339251  4450
TRANSPORTER-17 OBJECT BK
1 69926U 26156BK  26218.24816952  .00002415  00000+0  24148-3 0  9991
2 69926  97.7552 118.2510 0009893  68.5072 291.7201 14.92351680  4469
TRANSPORTER-17 OBJECT BM
1 69928U 26156BM  26218.24762853  .00002273  00000+0  22741-3 0  9992
2 69928  97.7544 118.2485 0010226  64.8592 295.3687 14.92379004  4469
TRANSPORTER-17 OBJECT BN
1 69929U 26156BN  26218.24591527  .00002839  00000+0  28200-3 0  9995
2 69929  97.7519 118.2414 0010353  63.8006 296.4277 14.92479020  4460
TRANSPORTER-17 OBJECT BP
1 69930U 26156BP  26218.24541407  .00001972  00000+0  19747-3 0  9992
2 69930  97.7535 118.2481 0010572  66.9392 293.2940 14.92483539  4461
TRANSPORTER-17 OBJECT BS
1 69933U 26156BS  26218.31155942  .00002053  00000+0  20514-3 0  9993
2 69933  97.7523 118.3101 0010881  62.2982 297.9340 14.92528636  4472
TRANSPORTER-17 OBJECT BT
1 69934U 26156BT  26218.24402293  .00001844  00000+0  18473-3 0  9998
2 69934  97.7512 118.2416 0010937  64.8211 295.4141 14.92552389  4467
TRANSPORTER-17 OBJECT BV
1 69936U 26156BV  26218.17645568  .00000939  00000+0  96799-4 0  9998
2 69936  97.7458 118.1537 0011362  59.2958 300.9379 14.92522423  4450
===
No GP data found===
No GP data found===
NVS-02 (IRNSS-1K)       
1 62850U 25020A   26218.20239943  .00000342  00000+0  14815-3 0  9991
2 62850  20.5451 240.9959 7353645 182.1555 170.4337  2.18044569 12072
===
LVM3 R/B                
1 67233U 25309B   26217.96631618  .00002656  00000+0  12755-3 0  9999
2 67233  52.9311  97.4639 0011485 322.2930  37.7258 15.22416625 34229
===
No GP data found===
No GP data found===
===
